CCSDS_OMM_VERS = 2.0
CREATION_DATE  = 
ORIGINATOR     = 

OBJECT_NAME    = STARLINK-36480
OBJECT_ID      = 2026-003C
CENTER_NAME    = EARTH
REF_FRAME      = TEME
TIME_SYSTEM    = UTC
MEAN_ELEMENT_THEORY = SGP/SGP4

EPOCH          = 2026-01-29T12:00:02.998944
MEAN_MOTION    = 15.63505689
ECCENTRICITY   = .000121
INCLINATION    = 42.9996
RA_OF_ASC_NODE = 90.9089
ARG_OF_PERICENTER = 279.2310
MEAN_ANOMALY   = 1.6244

EPHEMERIS_TYPE = 0
CLASSIFICATION_TYPE = U
NORAD_CAT_ID   = 67336
ELEMENT_SET_NO = 999
REV_AT_EPOCH   = 437
BSTAR          = -.24302E-1
MEAN_MOTION_DOT = -.2029382E-1
MEAN_MOTION_DDOT = 0

CCSDS_OMM_VERS = 2.0
CREATION_DATE  = 
ORIGINATOR     = 

OBJECT_NAME    = STARLINK-36410
OBJECT_ID      = 2026-003D
CENTER_NAME    = EARTH
REF_FRAME      = TEME
TIME_SYSTEM    = UTC
MEAN_ELEMENT_THEORY = SGP/SGP4

EPOCH          = 2026-01-29T12:00:02.998944
MEAN_MOTION    = 15.63508242
ECCENTRICITY   = .0001318
INCLINATION    = 42.9996
RA_OF_ASC_NODE = 90.9037
ARG_OF_PERICENTER = 275.9662
MEAN_ANOMALY   = 6.8074

EPHEMERIS_TYPE = 0
CLASSIFICATION_TYPE = U
NORAD_CAT_ID   = 67337
ELEMENT_SET_NO = 999
REV_AT_EPOCH   = 437
BSTAR          = -.24355E-1
MEAN_MOTION_DOT = -.2033543E-1
MEAN_MOTION_DDOT = 0

CCSDS_OMM_VERS = 2.0
CREATION_DATE  = 
ORIGINATOR     = 

OBJECT_NAME    = STARLINK-36413
OBJECT_ID      = 2026-003E
CENTER_NAME    = EARTH
REF_FRAME      = TEME
TIME_SYSTEM    = UTC
MEAN_ELEMENT_THEORY = SGP/SGP4

EPOCH          = 2026-01-29T12:00:02.998944
MEAN_MOTION    = 15.63503296
ECCENTRICITY   = .000123
INCLINATION    = 42.9995
RA_OF_ASC_NODE = 90.8989
ARG_OF_PERICENTER = 277.6604
MEAN_ANOMALY   = 7.0299

EPHEMERIS_TYPE = 0
CLASSIFICATION_TYPE = U
NORAD_CAT_ID   = 67338
ELEMENT_SET_NO = 999
REV_AT_EPOCH   = 437
BSTAR          = -.24249E-1
MEAN_MOTION_DOT = -.2025351E-1
MEAN_MOTION_DDOT = 0

CCSDS_OMM_VERS = 2.0
CREATION_DATE  = 
ORIGINATOR     = 

OBJECT_NAME    = STARLINK-36451
OBJECT_ID      = 2026-003F
CENTER_NAME    = EARTH
REF_FRAME      = TEME
TIME_SYSTEM    = UTC
MEAN_ELEMENT_THEORY = SGP/SGP4

EPOCH          = 2026-01-29T12:00:02.998944
MEAN_MOTION    = 15.63501982
ECCENTRICITY   = .0001203
INCLINATION    = 42.9996
RA_OF_ASC_NODE = 90.8937
ARG_OF_PERICENTER = 279.8974
MEAN_ANOMALY   = 6.7100

EPHEMERIS_TYPE = 0
CLASSIFICATION_TYPE = U
NORAD_CAT_ID   = 67339
ELEMENT_SET_NO = 999
REV_AT_EPOCH   = 437
BSTAR          = -.2423E-1
MEAN_MOTION_DOT = -.2023859E-1
MEAN_MOTION_DDOT = 0

CCSDS_OMM_VERS = 2.0
CREATION_DATE  = 
ORIGINATOR     = 

OBJECT_NAME    = STARLINK-36339
OBJECT_ID      = 2026-003G
CENTER_NAME    = EARTH
REF_FRAME      = TEME
TIME_SYSTEM    = UTC
MEAN_ELEMENT_THEORY = SGP/SGP4

EPOCH          = 2026-01-29T12:00:02.998944
MEAN_MOTION    = 15.63500430
ECCENTRICITY   = .0001221
INCLINATION    = 42.9995
RA_OF_ASC_NODE = 90.8897
ARG_OF_PERICENTER = 276.8872
MEAN_ANOMALY   = 11.6383

EPHEMERIS_TYPE = 0
CLASSIFICATION_TYPE = U
NORAD_CAT_ID   = 67340
ELEMENT_SET_NO = 999
REV_AT_EPOCH   = 437
BSTAR          = -.24192E-1
MEAN_MOTION_DOT = -.2021006E-1
MEAN_MOTION_DDOT = 0

CCSDS_OMM_VERS = 2.0
CREATION_DATE  = 
ORIGINATOR     = 

OBJECT_NAME    = STARLINK-36453
OBJECT_ID      = 2026-003H
CENTER_NAME    = EARTH
REF_FRAME      = TEME
TIME_SYSTEM    = UTC
MEAN_ELEMENT_THEORY = SGP/SGP4

EPOCH          = 2026-01-29T12:00:02.998944
MEAN_MOTION    = 15.63502595
ECCENTRICITY   = .0001209
INCLINATION    = 42.9998
RA_OF_ASC_NODE = 90.8841
ARG_OF_PERICENTER = 280.6567
MEAN_ANOMALY   = 9.7853

EPHEMERIS_TYPE = 0
CLASSIFICATION_TYPE = U
NORAD_CAT_ID   = 67341
ELEMENT_SET_NO = 999
REV_AT_EPOCH   = 437
BSTAR          = -.24251E-1
MEAN_MOTION_DOT = -.202543E-1
MEAN_MOTION_DDOT = 0

CCSDS_OMM_VERS = 2.0
CREATION_DATE  = 
ORIGINATOR     = 

OBJECT_NAME    = STARLINK-36432
OBJECT_ID      = 2026-003J
CENTER_NAME    = EARTH
REF_FRAME      = TEME
TIME_SYSTEM    = UTC
MEAN_ELEMENT_THEORY = SGP/SGP4

EPOCH          = 2026-01-29T12:00:02.998944
MEAN_MOTION    = 15.63504738
ECCENTRICITY   = .0001168
INCLINATION    = 42.9995
RA_OF_ASC_NODE = 90.8799
ARG_OF_PERICENTER = 276.1491
MEAN_ANOMALY   = 16.2113

EPHEMERIS_TYPE = 0
CLASSIFICATION_TYPE = U
NORAD_CAT_ID   = 67342
ELEMENT_SET_NO = 999
REV_AT_EPOCH   = 436
BSTAR          = -.24315E-1
MEAN_MOTION_DOT = -.2030219E-1
MEAN_MOTION_DDOT = 0

CCSDS_OMM_VERS = 2.0
CREATION_DATE  = 
ORIGINATOR     = 

OBJECT_NAME    = STARLINK-36458
OBJECT_ID      = 2026-003K
CENTER_NAME    = EARTH
REF_FRAME      = TEME
TIME_SYSTEM    = UTC
MEAN_ELEMENT_THEORY = SGP/SGP4

EPOCH          = 2026-01-29T12:00:02.998944
MEAN_MOTION    = 15.63505622
ECCENTRICITY   = .0001227
INCLINATION    = 42.9994
RA_OF_ASC_NODE = 90.8750
ARG_OF_PERICENTER = 278.6230
MEAN_ANOMALY   = 15.6528

EPHEMERIS_TYPE = 0
CLASSIFICATION_TYPE = U
NORAD_CAT_ID   = 67343
ELEMENT_SET_NO = 999
REV_AT_EPOCH   = 437
BSTAR          = -.24305E-1
MEAN_MOTION_DOT = -.2029595E-1
MEAN_MOTION_DDOT = 0

CCSDS_OMM_VERS = 2.0
CREATION_DATE  = 
ORIGINATOR     = 

OBJECT_NAME    = STARLINK-36422
OBJECT_ID      = 2026-003L
CENTER_NAME    = EARTH
REF_FRAME      = TEME
TIME_SYSTEM    = UTC
MEAN_ELEMENT_THEORY = SGP/SGP4

EPOCH          = 2026-01-29T12:00:02.998944
MEAN_MOTION    = 15.63506148
ECCENTRICITY   = .0001153
INCLINATION    = 42.9995
RA_OF_ASC_NODE = 90.8693
ARG_OF_PERICENTER = 276.1295
MEAN_ANOMALY   = 20.0629

EPHEMERIS_TYPE = 0
CLASSIFICATION_TYPE = U
NORAD_CAT_ID   = 67344
ELEMENT_SET_NO = 999
REV_AT_EPOCH   = 436
BSTAR          = -.24318E-1
MEAN_MOTION_DOT = -.2030539E-1
MEAN_MOTION_DDOT = 0

CCSDS_OMM_VERS = 2.0
CREATION_DATE  = 
ORIGINATOR     = 

OBJECT_NAME    = STARLINK-35676
OBJECT_ID      = 2026-003M
CENTER_NAME    = EARTH
REF_FRAME      = TEME
TIME_SYSTEM    = UTC
MEAN_ELEMENT_THEORY = SGP/SGP4

EPOCH          = 2026-01-29T12:00:02.998944
MEAN_MOTION    = 15.63505110
ECCENTRICITY   = .0001278
INCLINATION    = 42.9995
RA_OF_ASC_NODE = 90.8650
ARG_OF_PERICENTER = 277.1805
MEAN_ANOMALY   = 20.9296

EPHEMERIS_TYPE = 0
CLASSIFICATION_TYPE = U
NORAD_CAT_ID   = 67345
ELEMENT_SET_NO = 999
REV_AT_EPOCH   = 436
BSTAR          = -.24292E-1
MEAN_MOTION_DOT = -.2028659E-1
MEAN_MOTION_DDOT = 0

CCSDS_OMM_VERS = 2.0
CREATION_DATE  = 
ORIGINATOR     = 

OBJECT_NAME    = STARLINK-36472
OBJECT_ID      = 2026-003N
CENTER_NAME    = EARTH
REF_FRAME      = TEME
TIME_SYSTEM    = UTC
MEAN_ELEMENT_THEORY = SGP/SGP4

EPOCH          = 2026-01-29T12:00:02.998944
MEAN_MOTION    = 15.63503620
ECCENTRICITY   = .0001177
INCLINATION    = 42.9996
RA_OF_ASC_NODE = 90.8600
ARG_OF_PERICENTER = 278.3805
MEAN_ANOMALY   = 21.6454

EPHEMERIS_TYPE = 0
CLASSIFICATION_TYPE = U
NORAD_CAT_ID   = 67346
ELEMENT_SET_NO = 999
REV_AT_EPOCH   = 436
BSTAR          = -.24244E-1
MEAN_MOTION_DOT = -.2024987E-1
MEAN_MOTION_DDOT = 0

CCSDS_OMM_VERS = 2.0
CREATION_DATE  = 
ORIGINATOR     = 

OBJECT_NAME    = STARLINK-36420
OBJECT_ID      = 2026-003P
CENTER_NAME    = EARTH
REF_FRAME      = TEME
TIME_SYSTEM    = UTC
MEAN_ELEMENT_THEORY = SGP/SGP4

EPOCH          = 2026-01-29T12:00:02.998944
MEAN_MOTION    = 15.63510069
ECCENTRICITY   = .0001249
INCLINATION    = 42.9995
RA_OF_ASC_NODE = 90.8501
ARG_OF_PERICENTER = 280.3253
MEAN_ANOMALY   = 23.5335

EPHEMERIS_TYPE = 0
CLASSIFICATION_TYPE = U
NORAD_CAT_ID   = 67347
ELEMENT_SET_NO = 999
REV_AT_EPOCH   = 437
BSTAR          = -.24378E-1
MEAN_MOTION_DOT = -.2035262E-1
MEAN_MOTION_DDOT = 0

