STARLINK-36480          
1 67336U 26003C   26029.50003471 -.02029382  00000+0 -24302-1 0  9994
2 67336  42.9996  90.9089 0001210 279.2310   1.6244 15.63505689  4378
STARLINK-36410          
1 67337U 26003D   26029.50003471 -.02033543  00000+0 -24355-1 0  9997
2 67337  42.9996  90.9037 0001318 275.9662   6.8074 15.63508242  4370
STARLINK-36413          
1 67338U 26003E   26029.50003471 -.02025351  00000+0 -24249-1 0  9998
2 67338  42.9995  90.8989 0001230 277.6604   7.0299 15.63503296  4379
STARLINK-36451          
1 67339U 26003F   26029.50003471 -.02023859  00000+0 -24230-1 0  9990
2 67339  42.9996  90.8937 0001203 279.8974   6.7100 15.63501982  4375
STARLINK-36339          
1 67340U 26003G   26029.50003471 -.02021006  00000+0 -24192-1 0  9991
2 67340  42.9995  90.8897 0001221 276.8872  11.6383 15.63500430  4370
STARLINK-36453          
1 67341U 26003H   26029.50003471 -.02025430  00000+0 -24251-1 0  9993
2 67341  42.9998  90.8841 0001209 280.6567   9.7853 15.63502595  4377
STARLINK-36432          
1 67342U 26003J   26029.50003471 -.02030219  00000+0 -24315-1 0  9996
2 67342  42.9995  90.8799 0001168 276.1491  16.2113 15.63504738  4369
STARLINK-36458          
1 67343U 26003K   26029.50003471 -.02029595  00000+0 -24305-1 0  9991
2 67343  42.9994  90.8750 0001227 278.6230  15.6528 15.63505622  4377
STARLINK-36422          
1 67344U 26003L   26029.50003471 -.02030539  00000+0 -24318-1 0  9996
2 67344  42.9995  90.8693 0001153 276.1295  20.0629 15.63506148  4362
STARLINK-35676          
1 67345U 26003M   26029.50003471 -.02028659  00000+0 -24292-1 0  9998
2 67345  42.9995  90.8650 0001278 277.1805  20.9296 15.63505110  4369
STARLINK-36472          
1 67346U 26003N   26029.50003471 -.02024987  00000+0 -24244-1 0  9996
2 67346  42.9996  90.8600 0001177 278.3805  21.6454 15.63503620  4365
STARLINK-36420          
1 67347U 26003P   26029.50003471 -.02035262  00000+0 -24378-1 0  9993
2 67347  42.9995  90.8501 0001249 280.3253  23.5335 15.63510069  4370
